STARLINK-1618
1 16125C 20057J   21326.10176109  .00003449  00000-0  23111-3 0  3266
2 16125  53.0503 158.2785 0002090  78.3606 226.0831 15.06393467    10
